*******************************************************************************
 Revised: April 12, 2021                 Earth                              399
 
 GEOPHYSICAL PROPERTIES (revised May 9, 2022):
  Vol. Mean Radius (km)    = 6371.01+-0.02   Mass x10^24 (kg)= 5.97219+-0.0006
  Equ. radius, km          = 6378.137        Mass layers:
  Polar axis, km           = 6356.752          Atmos         = 5.1   x 10^18 kg
  Flattening               = 1/298.257223563   oceans        = 1.4   x 10^21 kg
  Density, g/cm^3          = 5.51              crust         = 2.6   x 10^22 kg
  J2 (IERS 2010)           = 0.00108262545     mantle        = 4.043 x 10^24 kg
  g_p, m/s^2  (polar)      = 9.8321863685      outer core    = 1.835 x 10^24 kg
  g_e, m/s^2  (equatorial) = 9.7803267715      inner core    = 9.675 x 10^22 kg
  g_o, m/s^2               = 9.82022         Fluid core rad  = 3480 km
  GM, km^3/s^2             = 398600.435436   Inner core rad  = 1215 km
  GM 1-sigma, km^3/s^2     =      0.0014     Escape velocity = 11.186 km/s
  Rot. Rate (rad/s)        = 0.00007292115   Surface area:
  Mean sidereal day, hr    = 23.9344695944     land          = 1.48 x 10^8 km
  Mean solar day 2000.0, s = 86400.002         sea           = 3.62 x 10^8 km
  Mean solar day 1820.0, s = 86400.0         Love no., k2    = 0.299
  Moment of inertia        = 0.3308          Atm. pressure   = 1.0 bar
  Mean surface temp (Ts), K= 287.6           Volume, km^3    = 1.08321 x 10^12
  Mean effect. temp (Te), K= 255             Magnetic moment = 0.61 gauss Rp^3
  Geometric albedo         = 0.367           Vis. mag. V(1,0)= -3.86
  Solar Constant (W/m^2)   = 1367.6 (mean), 1414 (perihelion), 1322 (aphelion)
 HELIOCENTRIC ORBIT CHARACTERISTICS:
  Obliquity to orbit, deg  = 23.4392911  Sidereal orb period  = 1.0000174 y
  Orbital speed, km/s      = 29.79       Sidereal orb period  = 365.25636 d
  Mean daily motion, deg/d = 0.9856474   Hill's sphere radius = 234.9       
*******************************************************************************


*******************************************************************************
Ephemeris / WWW_USER Fri Nov  8 10:41:34 2024 Pasadena, USA      / Horizons
*******************************************************************************
Target body name: Earth (399)                     {source: DE441}
Center body name: Solar System Barycenter (0)     {source: DE441}
Center-site name: BODY CENTER
*******************************************************************************
Start time      : A.D. 2013-Jan-01 00:00:00.0000 TDB
Stop  time      : A.D. 2014-Jan-01 00:00:00.0000 TDB
Step-size       : 1440 minutes
*******************************************************************************
Center geodetic : 0.0, 0.0, 0.0                   {E-lon(deg),Lat(deg),Alt(km)}
Center cylindric: 0.0, 0.0, 0.0                   {E-lon(deg),Dxy(km),Dz(km)}
Center radii    : (undefined)
Output units    : KM-S
Calendar mode   : Mixed Julian/Gregorian
Output type     : GEOMETRIC cartesian states
Output format   : 5 (velocity only)
Reference frame : Ecliptic of J2000.0
*******************************************************************************
JDTDB
   VX    VY    VZ
*******************************************************************************
$$SOE
2456440.500000000 = A.D. 2013-May-28 00:00:00.0000 TDB 
 VX= 2.686380829338517E+01 VY=-1.191907770255656E+01 VZ=-5.468853930983286E-04
2456441.500000000 = A.D. 2013-May-29 00:00:00.0000 TDB 
 VX= 2.705896282038695E+01 VY=-1.146231618887324E+01 VZ=-2.896955999887041E-04
2456442.500000000 = A.D. 2013-May-30 00:00:00.0000 TDB 
 VX= 2.724697811866234E+01 VY=-1.100205364836030E+01 VZ=-1.960850031590411E-05
2456443.500000000 = A.D. 2013-May-31 00:00:00.0000 TDB 
 VX= 2.742763794180976E+01 VY=-1.053829778138646E+01 VZ= 2.440470915718862E-04
2456444.500000000 = A.D. 2013-Jun-01 00:00:00.0000 TDB 
 VX= 2.760072061240472E+01 VY=-1.007111784288413E+01 VZ= 4.853480398585575E-04
2456445.500000000 = A.D. 2013-Jun-02 00:00:00.0000 TDB 
 VX= 2.776601712606853E+01 VY=-9.600632930062607E+00 VZ= 6.922476844923864E-04
2456446.500000000 = A.D. 2013-Jun-03 00:00:00.0000 TDB 
 VX= 2.792333996042642E+01 VY=-9.126998482262731E+00 VZ= 8.563095200266879E-04
2456447.500000000 = A.D. 2013-Jun-04 00:00:00.0000 TDB 
 VX= 2.807252550738242E+01 VY=-8.650394996190505E+00 VZ= 9.721537529627788E-04
2456448.500000000 = A.D. 2013-Jun-05 00:00:00.0000 TDB 
 VX= 2.821343336338661E+01 VY=-8.171020126621217E+00 VZ= 1.036907602982584E-03
2456449.500000000 = A.D. 2013-Jun-06 00:00:00.0000 TDB 
 VX= 2.834594477042309E+01 VY=-7.689083676439202E+00 VZ= 1.049781215972878E-03
2456450.500000000 = A.D. 2013-Jun-07 00:00:00.0000 TDB 
 VX= 2.846996135427982E+01 VY=-7.204804396743569E+00 VZ= 1.011777350449883E-03
2456451.500000000 = A.D. 2013-Jun-08 00:00:00.0000 TDB 
 VX= 2.858540442959738E+01 VY=-6.718407595915760E+00 VZ= 9.254893889201199E-04
2456452.500000000 = A.D. 2013-Jun-09 00:00:00.0000 TDB 
 VX= 2.869221464674294E+01 VY=-6.230122931458015E+00 VZ= 7.949331329384357E-04
2456453.500000000 = A.D. 2013-Jun-10 00:00:00.0000 TDB 
 VX= 2.879035160840544E+01 VY=-5.740182190487435E+00 VZ= 6.253754906815345E-04
2456454.500000000 = A.D. 2013-Jun-11 00:00:00.0000 TDB 
 VX= 2.887979319917264E+01 VY=-5.248817201864582E+00 VZ= 4.231522131672438E-04
2456455.500000000 = A.D. 2013-Jun-12 00:00:00.0000 TDB 
 VX= 2.896053463655142E+01 VY=-4.756258177193993E+00 VZ= 1.954941240061014E-04
2456456.500000000 = A.D. 2013-Jun-13 00:00:00.0000 TDB 
 VX= 2.903258754510765E+01 VY=-4.262732722390582E+00 VZ=-4.960297294220872E-05
2456457.500000000 = A.D. 2013-Jun-14 00:00:00.0000 TDB 
 VX= 2.909597957110017E+01 VY=-3.768465523539195E+00 VZ=-3.034305508946566E-04
2456458.500000000 = A.D. 2013-Jun-15 00:00:00.0000 TDB 
 VX= 2.915075512146140E+01 VY=-3.273678346634485E+00 VZ=-5.565264998554920E-04
2456459.500000000 = A.D. 2013-Jun-16 00:00:00.0000 TDB 
 VX= 2.919697767901059E+01 VY=-2.778589557023667E+00 VZ=-7.985621074357852E-04
2456460.500000000 = A.D. 2013-Jun-17 00:00:00.0000 TDB 
 VX= 2.923473375071815E+01 VY=-2.283411919053367E+00 VZ=-1.018231826260929E-03
2456461.500000000 = A.D. 2013-Jun-18 00:00:00.0000 TDB 
 VX= 2.926413773880744E+01 VY=-1.788347098944506E+00 VZ=-1.203291850676802E-03
2456462.500000000 = A.D. 2013-Jun-19 00:00:00.0000 TDB 
 VX= 2.928533578449982E+01 VY=-1.293575361295038E+00 VZ=-1.340969283626259E-03
2456463.500000000 = A.D. 2013-Jun-20 00:00:00.0000 TDB 
 VX= 2.929850505763297E+01 VY=-7.992399829941186E-01 VZ=-1.418999646708163E-03
2456464.500000000 = A.D. 2013-Jun-21 00:00:00.0000 TDB 
 VX= 2.930384385088205E+01 VY=-3.054285373168364E-01 VZ=-1.427455149996454E-03
2456465.500000000 = A.D. 2013-Jun-22 00:00:00.0000 TDB 
 VX= 2.930154890533978E+01 VY= 1.878427074063050E-01 VZ=-1.361196981611468E-03
2456466.500000000 = A.D. 2013-Jun-23 00:00:00.0000 TDB 
 VX= 2.929178140280809E+01 VY= 6.806316527534050E-01 VZ=-1.222246908400171E-03
2456467.500000000 = A.D. 2013-Jun-24 00:00:00.0000 TDB 
 VX= 2.927463114731814E+01 VY= 1.173052396330480E+00 VZ=-1.020948222518525E-03
2456468.500000000 = A.D. 2013-Jun-25 00:00:00.0000 TDB 
 VX= 2.925009405510281E+01 VY= 1.665237205773801E+00 VZ=-7.749903472467068E-04
2456469.500000000 = A.D. 2013-Jun-26 00:00:00.0000 TDB 
 VX= 2.921807442291835E+01 VY= 2.157291059646024E+00 VZ=-5.063596549880200E-04
2456470.500000000 = A.D. 2013-Jun-27 00:00:00.0000 TDB 
 VX= 2.917841096579936E+01 VY= 2.649256402733851E+00 VZ=-2.374047239140920E-04
2456471.500000000 = A.D. 2013-Jun-28 00:00:00.0000 TDB 
 VX= 2.913091387300596E+01 VY= 3.141099190356375E+00 VZ= 1.245540377814436E-05
2456472.500000000 = A.D. 2013-Jun-29 00:00:00.0000 TDB 
 VX= 2.907539793847361E+01 VY= 3.632715197849812E+00 VZ= 2.284792739204455E-04
2456473.500000000 = A.D. 2013-Jun-30 00:00:00.0000 TDB 
 VX= 2.901170332403780E+01 VY= 4.123947563966727E+00 VZ= 4.008360128664457E-04
2456474.500000000 = A.D. 2013-Jul-01 00:00:00.0000 TDB 
 VX= 2.893970356196394E+01 VY= 4.614606027501766E+00 VZ= 5.239043479097205E-04
2456475.500000000 = A.D. 2013-Jul-02 00:00:00.0000 TDB 
 VX= 2.885930490072819E+01 VY= 5.104482175722923E+00 VZ= 5.952640095447936E-04
2456476.500000000 = A.D. 2013-Jul-03 00:00:00.0000 TDB 
 VX= 2.877044170805750E+01 VY= 5.593359103954510E+00 VZ= 6.147858357348213E-04
2456477.500000000 = A.D. 2013-Jul-04 00:00:00.0000 TDB 
 VX= 2.867307130688650E+01 VY= 6.081016307506719E+00 VZ= 5.839863897976194E-04
2456478.500000000 = A.D. 2013-Jul-05 00:00:00.0000 TDB 
 VX= 2.856716999826149E+01 VY= 6.567231463075736E+00 VZ= 5.056549245390229E-04
2456479.500000000 = A.D. 2013-Jul-06 00:00:00.0000 TDB 
 VX= 2.845273082007225E+01 VY= 7.051780698635033E+00 VZ= 3.836863794228762E-04
2456480.500000000 = A.D. 2013-Jul-07 00:00:00.0000 TDB 
 VX= 2.832976287748731E+01 VY= 7.534438549771476E+00 VZ= 2.230336885373774E-04
2456481.500000000 = A.D. 2013-Jul-08 00:00:00.0000 TDB 
 VX= 2.819829173670529E+01 VY= 8.014978329770051E+00 VZ= 2.970056837581225E-05
2456482.500000000 = A.D. 2013-Jul-09 00:00:00.0000 TDB 
 VX= 2.805836028458463E+01 VY= 8.493173205832791E+00 VZ=-1.892819258002554E-04
2456483.500000000 = A.D. 2013-Jul-10 00:00:00.0000 TDB 
 VX= 2.791002955622186E+01 VY= 8.968797926724612E+00 VZ=-4.259231782146600E-04
2456484.500000000 = A.D. 2013-Jul-11 00:00:00.0000 TDB 
 VX= 2.775337926656066E+01 VY= 9.441630939079047E+00 VZ=-6.713850878714567E-04
2456485.500000000 = A.D. 2013-Jul-12 00:00:00.0000 TDB 
 VX= 2.758850807427083E+01 VY= 9.911456610237231E+00 VZ=-9.161186873769545E-04
2456486.500000000 = A.D. 2013-Jul-13 00:00:00.0000 TDB 
 VX= 2.741553384893240E+01 VY= 1.037806745990805E+01 VZ=-1.150002116343973E-03
2456487.500000000 = A.D. 2013-Jul-14 00:00:00.0000 TDB 
 VX= 2.723459428769113E+01 VY= 1.084126665233090E+01 VZ=-1.362474436650718E-03
2456488.500000000 = A.D. 2013-Jul-15 00:00:00.0000 TDB 
 VX= 2.704584803071371E+01 VY= 1.130087141625433E+01 VZ=-1.542698596528780E-03
